{
  "norad_id": 64013,
  "name": "STARLINK-34182",
  "history": [
    {
      "epoch": "2026-03-28T11:12:55.085472Z",
      "apogee_km": 483.7118521779603,
      "perigee_km": 482.3219196237551,
      "latitude_deg": -4.814336998622427e-05,
      "longitude_deg": -105.37010596605425,
      "height_km": 482.8907733935411,
      "semi_major_axis_km": 6861.153885900858,
      "eccentricity": 0.00010129,
      "inclination_deg": 43.0003,
      "raan_deg": 248.7468,
      "arg_perigee_deg": 261.935,
      "mean_anomaly_deg": 98.1386,
      "mean_motion_rev_day": 15.27590757
    }
  ]
}